{
  "type": "FeatureCollection",
  "features": [
    {
      "type": "Feature",
      "properties": {
        "norad_id": 43262,
        "name": "GAOFEN-1 04",
        "group": "resource",
        "lat": 30.18590362885565,
        "lon": -119.93873089429593,
        "alt_km": 639.1065062688185,
        "timestamp": "2025-12-23T11:34:47.839560+00:00",
        "meta_object_name": "GAOFEN-1 04",
        "meta_object_id": "2018-031D",
        "meta_epoch": "2025-12-23T04:23:58.250112",
        "meta_mean_motion": 14.76424937,
        "meta_eccentricity": 5.88e-05,
        "meta_inclination": 98.0794,
        "meta_ra_of_asc_node": 55.0224,
        "meta_arg_of_pericenter": 57.7863,
        "meta_mean_anomaly": 302.3403,
        "meta_ephemeris_type": 0,
        "meta_classification_type": "U",
        "meta_norad_cat_id": 43262,
        "meta_element_set_no": 999,
        "meta_rev_at_epoch": 41671,
        "meta_bstar": 0.00010096,
        "meta_mean_motion_dot": 6.5e-06,
        "meta_mean_motion_ddot": 0,
        "tle_line1": "1 43262U 18031D   25357.18331308  .00000650  00000+0  10096-3 0  9998",
        "tle_line2": "2 43262  98.0794  55.0224 0000588  57.7863 302.3403 14.76424937416712"
      },
      "geometry": {
        "type": "Point",
        "coordinates": [
          -119.93873089429593,
          30.18590362885565
        ]
      }
    },
    {
      "type": "Feature",
      "properties": {
        "norad_id": 43437,
        "name": "SENTINEL-3B",
        "group": "resource",
        "lat": -16.71554850493893,
        "lon": -120.09942386145471,
        "alt_km": 807.8015712878278,
        "timestamp": "2025-12-23T11:34:47.839568+00:00",
        "meta_object_name": "SENTINEL-3B",
        "meta_object_id": "2018-039A",
        "meta_epoch": "2025-12-23T03:55:41.259936",
        "meta_mean_motion": 14.26737963,
        "meta_eccentricity": 0.0001614,
        "meta_inclination": 98.6253,
        "meta_ra_of_asc_node": 62.199,
        "meta_arg_of_pericenter": 91.6163,
        "meta_mean_anomaly": 268.5202,
        "meta_ephemeris_type": 0,
        "meta_classification_type": "U",
        "meta_norad_cat_id": 43437,
        "meta_element_set_no": 999,
        "meta_rev_at_epoch": 39902,
        "meta_bstar": 7.7591e-05,
        "meta_mean_motion_dot": 1.44e-06,
        "meta_mean_motion_ddot": 0,
        "tle_line1": "1 43437U 18039A   25357.16367199  .00000144  00000+0  77591-4 0  9997",
        "tle_line2": "2 43437  98.6253  62.1990 0001614  91.6163 268.5202 14.26737963399027"
      },
      "geometry": {
        "type": "Point",
        "coordinates": [
          -120.09942386145471,
          -16.71554850493893
        ]
      }
    },
    {
      "type": "Feature",
      "properties": {
        "norad_id": 43461,
        "name": "GAOFEN-5 01",
        "group": "resource",
        "lat": 45.741410621830326,
        "lon": -48.12012755186692,
        "alt_km": 688.1334972489349,
        "timestamp": "2025-12-23T11:34:47.839577+00:00",
        "meta_object_name": "GAOFEN-5 01",
        "meta_object_id": "2018-043A",
        "meta_epoch": "2025-12-22T22:12:48.981024",
        "meta_mean_motion": 14.60420499,
        "meta_eccentricity": 5.17e-05,
        "meta_inclination": 98.4342,
        "meta_ra_of_asc_node": 320.0714,
        "meta_arg_of_pericenter": 264.8511,
        "meta_mean_anomaly": 95.263,
        "meta_ephemeris_type": 0,
        "meta_classification_type": "U",
        "meta_norad_cat_id": 43461,
        "meta_element_set_no": 999,
        "meta_rev_at_epoch": 40596,
        "meta_bstar": 0.00010514,
        "meta_mean_motion_dot": 4.6e-06,
        "meta_mean_motion_ddot": 0,
        "tle_line1": "1 43461U 18043A   25356.92556691  .00000460  00000+0  10514-3 0  9991",
        "tle_line2": "2 43461  98.4342 320.0714 0000517 264.8511  95.2630 14.60420499405965"
      },
      "geometry": {
        "type": "Point",
        "coordinates": [
          -48.12012755186692,
          45.741410621830326
        ]
      }
    },
    {
      "type": "Feature",
      "properties": {
        "norad_id": 43484,
        "name": "GAOFEN-6",
        "group": "resource",
        "lat": -54.02114912437112,
        "lon": 72.27489291947774,
        "alt_km": 646.5942538252384,
        "timestamp": "2025-12-23T11:34:47.839587+00:00",
        "meta_object_name": "GAOFEN-6",
        "meta_object_id": "2018-048A",
        "meta_epoch": "2025-12-23T05:19:18.569280",
        "meta_mean_motion": 14.76584464,
        "meta_eccentricity": 0.001267,
        "meta_inclination": 97.802,
        "meta_ra_of_asc_node": 61.1365,
        "meta_arg_of_pericenter": 32.6476,
        "meta_mean_anomaly": 327.5515,
        "meta_ephemeris_type": 0,
        "meta_classification_type": "U",
        "meta_norad_cat_id": 43484,
        "meta_element_set_no": 999,
        "meta_rev_at_epoch": 40742,
        "meta_bstar": 0.00015603,
        "meta_mean_motion_dot": 1.041e-05,
        "meta_mean_motion_ddot": 0,
        "tle_line1": "1 43484U 18048A   25357.22174270  .00001041  00000+0  15603-3 0  9994",
        "tle_line2": "2 43484  97.8020  61.1365 0012670  32.6476 327.5515 14.76584464407421"
      },
      "geometry": {
        "type": "Point",
        "coordinates": [
          72.27489291947774,
          -54.02114912437112
        ]
      }
    },
    {
      "type": "Feature",
      "properties": {
        "norad_id": 43585,
        "name": "GAOFEN-11 01",
        "group": "resource",
        "lat": 41.965379777876656,
        "lon": 53.84203566922654,
        "alt_km": 417.0230868408462,
        "timestamp": "2025-12-23T11:34:47.839596+00:00",
        "meta_object_name": "GAOFEN-11 01",
        "meta_object_id": "2018-063A",
        "meta_epoch": "2025-12-23T05:11:52.872288",
        "meta_mean_motion": 15.49503327,
        "meta_eccentricity": 0.00039,
        "meta_inclination": 97.1546,
        "meta_ra_of_asc_node": 60.0646,
        "meta_arg_of_pericenter": 258.0937,
        "meta_mean_anomaly": 101.9877,
        "meta_ephemeris_type": 0,
        "meta_classification_type": "U",
        "meta_norad_cat_id": 43585,
        "meta_element_set_no": 999,
        "meta_rev_at_epoch": 41304,
        "meta_bstar": 0.00029371,
        "meta_mean_motion_dot": 0.00016099,
        "meta_mean_motion_ddot": 0,
        "tle_line1": "1 43585U 18063A   25357.21658417  .00016099  00000+0  29371-3 0  9998",
        "tle_line2": "2 43585  97.1546  60.0646 0003900 258.0937 101.9877 15.49503327413041"
      },
      "geometry": {
        "type": "Point",
        "coordinates": [
          53.84203566922654,
          41.965379777876656
        ]
      }
    },
    {
      "type": "Feature",
      "properties": {
        "norad_id": 43613,
        "name": "ICESAT-2",
        "group": "resource",
        "lat": 41.07859168202875,
        "lon": -118.11248871882296,
        "alt_km": 477.28118918887594,
        "timestamp": "2025-12-23T11:34:47.839605+00:00",
        "meta_object_name": "ICESAT-2",
        "meta_object_id": "2018-070A",
        "meta_epoch": "2025-12-23T03:32:35.968128",
        "meta_mean_motion": 15.28297788,
        "meta_eccentricity": 0.0003161,
        "meta_inclination": 92.004,
        "meta_ra_of_asc_node": 243.5463,
        "meta_arg_of_pericenter": 119.3229,
        "meta_mean_anomaly": 240.8337,
        "meta_ephemeris_type": 0,
        "meta_classification_type": "U",
        "meta_norad_cat_id": 43613,
        "meta_element_set_no": 999,
        "meta_rev_at_epoch": 40557,
        "meta_bstar": 0.00048474,
        "meta_mean_motion_dot": 0.00013363,
        "meta_mean_motion_ddot": 0,
        "tle_line1": "1 43613U 18070A   25357.14763852  .00013363  00000+0  48474-3 0  9996",
        "tle_line2": "2 43613  92.0040 243.5463 0003161 119.3229 240.8337 15.28297788405574"
      },
      "geometry": {
        "type": "Point",
        "coordinates": [
          -118.11248871882296,
          41.07859168202875
        ]
      }
    },
    {
      "type": "Feature",
      "properties": {
        "norad_id": 43719,
        "name": "HYSIS",
        "group": "resource",
        "lat": 60.37335544771696,
        "lon": 46.0741242977193,
        "alt_km": 627.0533545028056,
        "timestamp": "2025-12-23T11:34:47.839613+00:00",
        "meta_object_name": "HYSIS",
        "meta_object_id": "2018-096A",
        "meta_epoch": "2025-12-23T04:48:25.689312",
        "meta_mean_motion": 14.78670618,
        "meta_eccentricity": 8.82e-05,
        "meta_inclination": 98.0085,
        "meta_ra_of_asc_node": 60.1266,
        "meta_arg_of_pericenter": 53.9626,
        "meta_mean_anomaly": 306.1666,
        "meta_ephemeris_type": 0,
        "meta_classification_type": "U",
        "meta_norad_cat_id": 43719,
        "meta_element_set_no": 999,
        "meta_rev_at_epoch": 38141,
        "meta_bstar": 0.00015076,
        "meta_mean_motion_dot": 1.053e-05,
        "meta_mean_motion_ddot": 0,
        "tle_line1": "1 43719U 18096A   25357.20029733  .00001053  00000+0  15076-3 0  9996",
        "tle_line2": "2 43719  98.0085  60.1266 0000882  53.9626 306.1666 14.78670618381419"
      },
      "geometry": {
        "type": "Point",
        "coordinates": [
          46.0741242977193,
          60.37335544771696
        ]
      }
    }
  ]
}